[Satellite]
VERSION=1.1
NAME=GPS BIIF-3
NICKNAME=GPS BIIF-3
TLE1=1 38833U 12053A   15055.10046805 -.00000071  00000-0  00000+0 0  9994
TLE2=2 38833  54.6837 313.2651 0030507  13.3116 346.8154  2.00562684 17496
